NOAA 1                  
1 04793U 70106A   26073.61437627 -.00000028  00000+0  88627-4 0  9996
2 04793 101.3502 112.4365 0031837 171.2563 340.7171 12.54049320528835
NOAA 2 (ITOS-D)         
1 06235U 72082A   26073.61815807 -.00000015  00000+0  19606-3 0  9990
2 06235 102.0159  91.1290 0003912 355.6531 121.0728 12.53211968443102
NOAA 3                  
1 06920U 73086A   26073.60266304 -.00000023  00000+0  17205-3 0  9999
2 06920 102.2903  86.6290 0006182 299.3865 172.4451 12.40391854370175
NOAA 4                  
1 07529U 74089A   26073.59819742 -.00000014  00000+0  20582-3 0  9999
2 07529 102.0069  85.3820 0009059  19.5965  98.7366 12.53201808347673
NOAA 5                  
1 09057U 76077A   26073.62126829 -.00000018  00000+0  21625-3 0  9990
2 09057 102.2964  59.1539 0009886 151.2661 326.1213 12.37828582242778
TIROS N                 
1 11060U 78096A   26073.60528110  .00000220  00000+0  12443-3 0  9999
2 11060  98.4627  98.9070 0010997 151.4258 208.7524 14.19340940665337
NOAA 6                  
1 11416U 79057A   26073.57035452  .00000352  00000+0  13778-3 0  9998
2 11416  98.5745 103.6944 0010024 172.3502 187.7838 14.35437713437382
NOAA 7                  
1 12553U 81059A   26073.60126359  .00000062  00000+0  52112-4 0  9991
2 12553  98.8050 141.6105 0011602 173.7794 186.3527 14.17774585311347
NOAA 8                  
1 13923U 83022A   26073.59300541  .00000190  00000+0  91370-4 0  9991
2 13923  98.7370  86.4066 0014940 171.2020 188.9426 14.29769105237559
NOAA 9                  
1 15427U 84123A   26073.59840476  .00000136  00000+0  91059-4 0  9995
2 15427  99.1090  98.0036 0013705 256.8104 214.7785 14.17040828130022
NOAA 10                 
1 16969U 86073A   26073.59423674  .00000193  00000+0  93743-4 0  9995
2 16969  98.7003  66.9773 0010919 273.4285 197.5373 14.29146768 55901
NOAA 11                 
1 19531U 88089A   26073.59210709  .00000084  00000+0  64333-4 0  9997
2 19531  98.6101  22.4673 0010495 204.6437 155.4238 14.15822142934098
NOAA 12                 
1 21263U 91032A   26073.59246979  .00000138  00000+0  75188-4 0  9992
2 21263  98.6158  63.5174 0012719 308.0314  51.9718 14.26719488811470
NOAA 13                 
1 22739U 93050A   26073.46270076  .00000120  00000+0  86132-4 0  9996
2 22739  98.6937  21.0765 0010279  44.5972 315.6027 14.13638166679991
NOAA 14                 
1 23455U 94089A   26073.56230677  .00000089  00000+0  67842-4 0  9990
2 23455  98.5029  47.5460 0009522   2.8503 357.2724 14.14656614609829
NOAA 15                 
1 25338U 98030A   26073.60649721  .00000174  00000+0  88795-4 0  9996
2 25338  98.5158  96.7593 0009065 263.8212  96.1936 14.27114805447802
NOAA 16                 
1 26536U 00055A   26073.55172304  .00000139  00000+0  95012-4 0  9990
2 26536  98.4700  92.8010 0009826 207.3692 152.6965 14.13899680610354
NOAA 17                 
1 27453U 02032A   26073.58673687  .00000260  00000+0  12766-3 0  9998
2 27453  98.8549  38.2684 0010549 266.1099  93.8874 14.26192649233505
NOAA 18                 
1 28654U 05018A   26073.63762748  .00000039  00000+0  43696-4 0  9993
2 28654  98.8149 154.6755 0015158  62.3459 297.9250 14.13711810 72952
NOAA 19                 
1 33591U 09005A   26073.61968980  .00000039  00000+0  44511-4 0  9990
2 33591  98.9598 144.3989 0012748 299.7231  60.2672 14.13457726881127
SUOMI NPP               
1 37849U 11061A   26073.60668374  .00000110  00000+0  73209-4 0  9994
2 37849  98.7875  15.1705 0000686 197.7390 162.3762 14.19545199745025
NOAA 20 (JPSS-1)        
1 43013U 17073A   26073.55089999  .00000084  00000+0  60598-4 0  9994
2 43013  98.7696  13.8898 0001418 131.1845 228.9454 14.19537491431042
NOAA 21 (JPSS-2)        
1 54234U 22150A   26073.58555316  .00000096  00000+0  66585-4 0  9992
2 54234  98.7558  13.7954 0002750  97.9050 262.2438 14.19553682173120
